{
    "links": {
        "self": "http://www.neowsapp.com/rest/v1/neo/3669883?api_key=iIulBulltgU6a56xZRHN4H3l9WmuAYTsLGpBGhQ2"
    },
    "id": "3669883",
    "neo_reference_id": "3669883",
    "name": "(2014 HN132)",
    "designation": "2014 HN132",
    "nasa_jpl_url": "http://ssd.jpl.nasa.gov/sbdb.cgi?sstr=3669883",
    "absolute_magnitude_h": 25.6,
    "estimated_diameter": {
        "kilometers": {
            "estimated_diameter_min": 0.0201629919,
            "estimated_diameter_max": 0.0450858206
        },
        "meters": {
            "estimated_diameter_min": 20.1629919443,
            "estimated_diameter_max": 45.0858206172
        },
        "miles": {
            "estimated_diameter_min": 0.0125286985,
            "estimated_diameter_max": 0.0280150214
        },
        "feet": {
            "estimated_diameter_min": 66.1515504905,
            "estimated_diameter_max": 147.9193637137
        }
    },
    "is_potentially_hazardous_asteroid": false,
    "close_approach_data": [
        {
            "close_approach_date": "2014-04-02",
            "close_approach_date_full": "2014-Apr-02 18:37",
            "epoch_date_close_approach": 1396463820000,
            "relative_velocity": {
                "kilometers_per_second": "7.553347552",
                "kilometers_per_hour": "27192.0511870329",
                "miles_per_hour": "16896.0831389649"
            },
            "miss_distance": {
                "astronomical": "0.0971299426",
                "lunar": "37.7835476714",
                "kilometers": "14530432.526182262",
                "miles": "9028792.1011167356"
            },
            "orbiting_body": "Earth"
        }
    ],
    "orbital_data": {
        "orbit_id": "9",
        "orbit_determination_date": "2019-07-17 06:10:06",
        "first_observation_date": "2014-04-23",
        "last_observation_date": "2014-04-26",
        "data_arc_in_days": 3,
        "observations_used": 21,
        "orbit_uncertainty": "8",
        "minimum_orbit_intersection": ".090396",
        "jupiter_tisserand_invariant": "4.523",
        "epoch_osculation": "2456771.5",
        "eccentricity": ".3349002037202259",
        "semi_major_axis": "1.470516782488829",
        "inclination": "10.76836559361551",
        "ascending_node_longitude": "35.02799069746878",
        "orbital_period": "651.3334835907044",
        "perihelion_distance": ".9780404124593094",
        "perihelion_argument": "113.1613365429041",
        "aphelion_distance": "1.962993152518349",
        "perihelion_time": "2456708.852045736969",
        "mean_anomaly": "34.62629221878534",
        "mean_motion": ".5527122573453058",
        "equinox": "J2000",
        "orbit_class": {
            "orbit_class_type": "APO",
            "orbit_class_description": "Near-Earth asteroid orbits which cross the Earth’s orbit similar to that of 1862 Apollo",
            "orbit_class_range": "a (semi-major axis) > 1.0 AU; q (perihelion) < 1.017 AU"
        }
    },
    "is_sentry_object": false
}